{
  "type": "FeatureCollection",
  "features": [
    {
      "type": "Feature",
      "geometry": {
        "type": "Polygon",
        "coordinates": [
          [
            [
              -89.370626,
              41.863067
            ],
            [
              -89.32062599999999,
              41.863067
            ],
            [
              -89.32062599999999,
              41.913067
            ],
            [
              -89.370626,
              41.913067
            ],
            [
              -89.370626,
              41.863067
            ]
          ]
        ]
      },
      "properties": {
        "name": "5km cutout at Nachusa-Grasslands-Center",
        "f": "Nachusa"
      }
    }
  ]
}